NORAD_CAT_ID,OBJECT_NAME,OBJECT_TYPE,EPOCH,MEAN_MOTION,ECCENTRICITY,INCLINATION,RA_OF_ASC_NODE,ARG_OF_PERICENTER,MEAN_ANOMALY,BSTAR,MEAN_MOTION_DOT,MEAN_MOTION_DDOT,TLE_LINE0,TLE_LINE1,TLE_LINE2,SEMIMAJOR_AXIS,PERIOD,APOGEE,PERIGEE,DECAYED
53540.0,STARLINK-4486,PAYLOAD,2024-03-15 14:00:01,15.08841156,0.0001343,53.2153,75.1159,88.6531,176.356,-0.00075877,-0.00012344,0.0,0 STARLINK-4486,1 53540U 22101P   24075.58334491 -.00012344  00000-0 -75877-3 0  9991,2 53540  53.2153  75.1159 0001343  88.6531 176.3560 15.08841156 86975,6917.877,95.437,540.671,538.813,0.0
53540.0,STARLINK-4486,PAYLOAD,2024-03-15 22:00:00,15.08821556,0.0001388,53.2157,73.618,98.2852,178.3236,0.0034023,0.00054249,0.0,0 STARLINK-4486,1 53540U 22101P   24075.91667824  .00054249  00000-0  34023-2 0  9992,2 53540  53.2157  73.6180 0001388  98.2852 178.3236 15.08821556  5760,6917.937,95.439,540.762,538.842,0.0
53540.0,STARLINK-4486,PAYLOAD,2024-03-16 04:43:41,15.08845601,0.0001493,53.216,72.3601,89.0044,271.1119,0.00015389,2.162e-05,0.0,0 STARLINK-4486,1 53540U 22101P   24076.19700339  .00002162  00000-0  15389-3 0  9994,2 53540  53.2160  72.3601 0001493  89.0044 271.1119 15.08845601 87079,6917.863,95.437,540.761,538.695,0.0
53540.0,STARLINK-4486,PAYLOAD,2024-03-16 06:19:04,15.08844924,0.0001471,53.2161,72.0634,87.1341,272.982,0.00016188,2.29e-05,0.0,0 STARLINK-4486,1 53540U 22101P   24076.26324374  .00002290  00000-0  16188-3 0  9993,2 53540  53.2161  72.0634 0001471  87.1341 272.9820 15.08844924 87770,6917.865,95.437,540.748,538.713,0.0
53540.0,STARLINK-4486,PAYLOAD,2024-03-17 04:34:28,15.08835408,0.0001587,53.2176,67.9022,99.206,260.9112,-1.2855e-06,-3.08e-06,0.0,0 STARLINK-4486,1 53540U 22101P   24077.19060890 -.00000308  00000-0 -12855-5 0  9995,2 53540  53.2176  67.9022 0001587  99.2060 260.9112 15.08835408 87228,6917.894,95.438,540.857,538.662,0.0
53540.0,STARLINK-4486,PAYLOAD,2024-03-17 06:09:51,15.08835007,0.0001564,53.2175,67.6048,97.3979,262.7191,-1.152e-05,-4.71e-06,0.0,0 STARLINK-4486,1 53540U 22101P   24077.25684920 -.00000471  00000-0 -11520-4 0  9996,2 53540  53.2175  67.6048 0001564  97.3979 262.7191 15.08835007 87924,6917.896,95.438,540.843,538.679,0.0
53540.0,STARLINK-4486,PAYLOAD,2024-03-17 22:03:42,15.08840718,0.0001448,53.2184,64.6331,88.7352,271.3806,9.573e-05,1.236e-05,0.0,0 STARLINK-4486,1 53540U 22101P   24077.91924700  .00001236  00000-0  95730-4 0  9995,2 53540  53.2184  64.6331 0001448  88.7352 271.3806 15.08840718 88022,6917.878,95.438,540.745,538.741,0.0
53540.0,STARLINK-4486,PAYLOAD,2024-03-18 04:25:15,15.08844627,0.0001485,53.2185,63.4422,96.0891,264.027,0.00011383,1.524e-05,0.0,0 STARLINK-4486,1 53540U 22101P   24078.18420385  .00001524  00000-0  11383-3 0  9996,2 53540  53.2185  63.4422 0001485  96.0891 264.0270 15.08844627 87376,6917.866,95.437,540.759,538.704,0.0
53540.0,STARLINK-4486,PAYLOAD,2024-03-18 06:00:38,15.08846506,0.0001543,53.2183,63.1443,101.8016,258.315,0.00012701,1.734e-05,0.0,0 STARLINK-4486,1 53540U 22101P   24078.25044195  .00001734  00000-0  12701-3 0  9993,2 53540  53.2183  63.1443 0001543 101.8016 258.3150 15.08846506 88072,6917.861,95.437,540.793,538.658,0.0
53540.0,STARLINK-4486,PAYLOAD,2024-03-19 04:16:02,15.08836008,0.0001628,53.2184,58.98,108.0574,252.0596,0.00010187,1.333e-05,0.0,0 STARLINK-4486,1 53540U 22101P   24079.17781093  .00001333  00000-0  10187-3 0  9991,2 53540  53.2184  58.9800 0001628 108.0574 252.0596 15.08836008 87524,6917.893,95.438,540.884,538.631,0.0
53540.0,STARLINK-4486,PAYLOAD,2024-03-19 09:02:12,15.08839127,0.0001787,53.2187,58.0871,115.8265,244.2911,0.00012575,1.714e-05,0.0,0 STARLINK-4486,1 53540U 22101P   24079.37652810  .00001714  00000-0  12575-3 0  9993,2 53540  53.2187  58.0871 0001787 115.8265 244.2911 15.08839127 88244,6917.883,95.438,540.984,538.512,0.0
53540.0,STARLINK-4486,PAYLOAD,2024-03-20 05:42:11,15.08856689,0.0001383,53.2174,54.2195,101.0279,259.0869,0.00010796,1.431e-05,0.0,0 STARLINK-4486,1 53540U 22101P   24080.23763617  .00001431  00000-0  10796-3 0  9997,2 53540  53.2174  54.2195 0001383 101.0279 259.0869 15.08856689 87686,6917.829,95.436,540.651,538.738,0.0
53540.0,STARLINK-4486,PAYLOAD,2024-03-21 03:57:36,15.08837792,0.000133,53.2174,50.0573,93.2461,266.8683,-1.652e-05,-5.51e-06,0.0,0 STARLINK-4486,1 53540U 22101P   24081.16500738 -.00000551  00000-0 -16520-4 0  9999,2 53540  53.2174  50.0573 0001330  93.2461 266.8683 15.08837792 87827,6917.887,95.438,540.672,538.832,0.0
53540.0,STARLINK-4486,PAYLOAD,2024-03-21 05:32:59,15.08837484,0.0001312,53.2173,49.7599,93.1967,266.9175,-1.8708e-05,-5.86e-06,0.0,0 STARLINK-4486,1 53540U 22101P   24081.23124762 -.00000586  00000-0 -18708-4 0  9994,2 53540  53.2173  49.7599 0001312  93.1967 266.9175 15.08837484 88522,6917.888,95.438,540.661,538.845,0.0
53540.0,STARLINK-4486,PAYLOAD,2024-03-22 06:59:09,15.08852905,0.0001805,53.2193,44.9945,119.4006,240.7167,0.00013482,1.859e-05,0.0,0 STARLINK-4486,1 53540U 22101P   24082.29108220  .00001859  00000-0  13482-3 0  9997,2 53540  53.2193  44.9945 0001805 119.4006 240.7167 15.08852905 87995,6917.841,95.437,540.955,538.457,0.0
53540.0,STARLINK-4486,PAYLOAD,2024-03-23 03:39:11,15.0883733,0.0001579,53.217,41.1391,77.4751,282.6418,0.00018194,2.609e-05,0.0,0 STARLINK-4486,1 53540U 22101P   24083.15221654  .00002609  00000-0  18194-3 0  9999,2 53540  53.2170  41.1391 0001579  77.4751 282.6418 15.08837330 88127,6917.889,95.438,540.846,538.661,0.0
53540.0,STARLINK-4486,PAYLOAD,2024-03-23 06:49:57,15.08840762,0.0001574,53.2165,40.5398,93.0875,267.0297,0.0002279,3.341e-05,0.0,0 STARLINK-4486,1 53540U 22101P   24083.28469430  .00003341  00000-0  22790-3 0  9990,2 53540  53.2165  40.5398 0001574  93.0875 267.0297 15.08840762 88830,6917.878,95.438,540.832,538.654,0.0
53540.0,STARLINK-4486,PAYLOAD,2024-03-24 03:29:57,15.08858215,0.0001692,53.2182,36.672,101.8791,258.2391,0.00030075,4.504e-05,0.0,0 STARLINK-4486,1 53540U 22101P   24084.14580436  .00004504  00000-0  30075-3 0  9993,2 53540  53.2182  36.6720 0001692 101.8791 258.2391 15.08858215 88277,6917.825,95.436,540.86,538.519,0.0
53540.0,STARLINK-4486,PAYLOAD,2024-03-24 06:40:43,15.08861005,0.000172,53.2188,36.0748,91.8189,268.3,0.00054932,8.47e-05,0.0,0 STARLINK-4486,1 53540U 22101P   24084.27828294  .00008470  00000-0  54932-3 0  9998,2 53540  53.2188  36.0748 0001720  91.8189 268.3000 15.08861005 88986,6917.816,95.436,540.871,538.491,0.0
53540.0,STARLINK-4486,PAYLOAD,2024-03-24 20:59:12,15.08841658,0.0001838,53.2176,33.4029,94.4216,265.6986,0.00014673,2.048e-05,0.0,0 STARLINK-4486,1 53540U 22101P   24084.87445426  .00002048  00000-0  14673-3 0  9999,2 53540  53.2176  33.4029 0001838  94.4216 265.6986 15.08841658 88385,6917.875,95.437,541.012,538.469,0.0
53540.0,STARLINK-4486,PAYLOAD,2024-03-25 12:53:04,15.08836403,0.0001249,53.2161,30.43,69.9586,290.154,0.00032357,4.865e-05,0.0,0 STARLINK-4486,1 53540U 22101P   24085.53685879  .00004865  00000-0  32357-3 0  9999,2 53540  53.2161  30.4300 0001249  69.9586 290.1540 15.08836403 88483,6917.891,95.438,540.62,538.892,0.0
53540.0,STARLINK-4486,PAYLOAD,2024-03-25 20:50:00,15.08823728,0.0001237,53.219,28.9444,85.0807,275.0326,0.0001552,2.182e-05,0.0,0 STARLINK-4486,1 53540U 22101P   24085.86806211  .00002182  00000-0  15520-3 0  9993,2 53540  53.2190  28.9444 0001237  85.0807 275.0326 15.08823728 89221,6917.93,95.439,540.651,538.939,0.0
53540.0,STARLINK-4486,PAYLOAD,2024-03-26 12:43:52,15.08840475,0.0001258,53.2182,25.9686,75.5442,284.5689,0.00075576,0.00011761,0.0,0 STARLINK-4486,1 53540U 22101P   24086.53046401  .00011761  00000-0  75576-3 0  9995,2 53540  53.2182  25.9686 0001258  75.5442 284.5689 15.08840475 88638,6917.879,95.438,540.614,538.874,0.0
53540.0,STARLINK-4486,PAYLOAD,2024-03-27 03:02:20,15.08839903,0.000128,53.2175,23.2998,98.6666,261.4471,0.00022907,3.36e-05,0.0,0 STARLINK-4486,1 53540U 22101P   24087.12662483  .00003360  00000-0  22907-3 0  9991,2 53540  53.2175  23.2998 0001280  98.6666 261.4471 15.08839903 88723,6917.881,95.438,540.631,538.86,0.0
53540.0,STARLINK-4486,PAYLOAD,2024-03-27 12:34:39,15.08840297,0.000104,53.2172,21.513,90.5649,269.5462,0.00013271,1.825e-05,0.0,0 STARLINK-4486,1 53540U 22101P   24087.52406326  .00001825  00000-0  13271-3 0  9995,2 53540  53.2172  21.5130 0001040  90.5649 269.5462 15.08840297 89475,6917.879,95.438,540.464,539.025,0.0
53540.0,STARLINK-4486,PAYLOAD,2024-03-28 04:28:30,15.08849912,0.0001649,53.2198,18.5368,85.1436,274.9744,0.0002264,3.318e-05,0.0,0 STARLINK-4486,1 53540U 22101P   24088.18646141  .00003318  00000-0  22640-3 0  9998,2 53540  53.2198  18.5368 0001649  85.1436 274.9744 15.08849912 88881,6917.85,95.437,540.856,538.574,0.0
53540.0,STARLINK-4486,PAYLOAD,2024-03-28 12:25:26,15.08838469,0.0001529,53.2196,17.0497,77.4621,282.6542,-1.2385e-05,-4.85e-06,0.0,0 STARLINK-4486,1 53540U 22101P   24088.51766517 -.00000485  00000-0 -12385-4 0  9995,2 53540  53.2196  17.0497 0001529  77.4621 282.6542 15.08838469 88936,6917.885,95.438,540.808,538.692,0.0
53540.0,STARLINK-4486,PAYLOAD,2024-03-29 04:19:17,15.08850064,0.0001606,53.219,14.0731,53.4343,306.6797,0.0001146,1.537e-05,0.0,0 STARLINK-4486,1 53540U 22101P   24089.18005995  .00001537  00000-0  11460-3 0  9994,2 53540  53.2190  14.0731 0001606  53.4343 306.6797 15.08850064 89035,6917.85,95.437,540.826,538.604,0.0
53540.0,STARLINK-4486,PAYLOAD,2024-03-29 12:16:12,15.08860099,0.000109,53.2181,12.5885,76.4806,283.6307,-0.00034742,-5.816e-05,0.0,0 STARLINK-4486,1 53540U 22101P   24089.51125085 -.00005816  00000-0 -34742-3 0  9998,2 53540  53.2181  12.5885 0001090  76.4806 283.6307 15.08860099 89775,6917.819,95.436,540.438,538.93,0.0
53540.0,STARLINK-4486,PAYLOAD,2024-03-30 04:10:04,15.08836113,0.0001368,53.2182,9.6178,88.7066,271.4083,-0.00019691,-3.42e-05,0.0,0 STARLINK-4486,1 53540U 22101P   24090.17366013 -.00003420  00000-0 -19691-3 0  9995,2 53540  53.2182   9.6178 0001368  88.7066 271.4083 15.08836113 89181,6917.892,95.438,540.704,538.811,0.0
